{"type": "FeatureCollection", "features": [ {"type": "Feature", "properties": {"norad_id": 30829, "name": "FENGYUN 1C DEB", "group": "fengyun-1c-debris", "lat": 58.15128874836163, "lon": -25.312955509972966, "alt_km": 868.192540063751, "timestamp": "2025-12-22T16:55:17.742224+00:00", "meta": {"OBJECT_NAME": "FENGYUN 1C DEB", "OBJECT_ID": "1999-025AVP", "EPOCH": "2025-12-21T04:50:35.348064", "MEAN_MOTION": 14.0866618, "ECCENTRICITY": 0.00351096, "INCLINATION": 98.7774, "RA_OF_ASC_NODE": 347.6253, "ARG_OF_PERICENTER": 310.4409, "MEAN_ANOMALY": 49.37, "EPHEMERIS_TYPE": 0, "CLASSIFICATION_TYPE": "U", "NORAD_CAT_ID": 30829, "ELEMENT_SET_NO": 999, "REV_AT_EPOCH": 96552, "BSTAR": 0.0003913399, "MEAN_MOTION_DOT": 6.34e-06, "MEAN_MOTION_DDOT": 0}, "tle": {"line1": "1 30829U 99025AVP 25355.20179801  .00000634  00000+0  39134-3 0  9990", "line2": "2 30829  98.7774 347.6253 0035109 310.4409  49.3700 14.08666180965525"}}, "geometry": {"type": "Point", "coordinates": [-25.312955509972966, 58.15128874836163]}}, {"type": "Feature", "properties": {"norad_id": 30830, "name": "FENGYUN 1C DEB", "group": "fengyun-1c-debris", "lat": 39.17395080800323, "lon": -22.3477744868389, "alt_km": 860.1036627658241, "timestamp": "2025-12-22T16:55:17.742236+00:00", "meta": {"OBJECT_NAME": "FENGYUN 1C DEB", "OBJECT_ID": "1999-025AVQ", "EPOCH": "2025-12-22T04:53:48.869376", "MEAN_MOTION": 14.12238294, "ECCENTRICITY": 0.00311567, "INCLINATION": 98.73, "RA_OF_ASC_NODE": 344.3567, "ARG_OF_PERICENTER": 161.8368, "MEAN_ANOMALY": 212.4442, "EPHEMERIS_TYPE": 0, "CLASSIFICATION_TYPE": "U", "NORAD_CAT_ID": 30830, "ELEMENT_SET_NO": 999, "REV_AT_EPOCH": 96733, "BSTAR": 0.00024107733, "MEAN_MOTION_DOT": 4.02e-06, "MEAN_MOTION_DDOT": 0}, "tle": {"line1": "1 30830U 99025AVQ 25356.20403784  .00000402  00000+0  24108-3 0  9991", "line2": "2 30830  98.7300 344.3567 0031156 161.8368 212.4442 14.12238294967337"}}, "geometry": {"type": "Point", "coordinates": [-22.3477744868389, 39.17395080800323]}}, {"type": "Feature", "properties": {"norad_id": 30831, "name": "FENGYUN 1C DEB", "group": "fengyun-1c-debris", "lat": -19.07307019145899, "lon": -33.06202725194806, "alt_km": 831.4713568842535, "timestamp": "2025-12-22T16:55:17.742246+00:00", "meta": {"OBJECT_NAME": "FENGYUN 1C DEB", "OBJECT_ID": "1999-025AVR", "EPOCH": "2025-12-22T04:14:50.951040", "MEAN_MOTION": 14.3110705, "ECCENTRICITY": 0.00552029, "INCLINATION": 99.3285, "RA_OF_ASC_NODE": 149.6295, "ARG_OF_PERICENTER": 6.9659, "MEAN_ANOMALY": 353.2277, "EPHEMERIS_TYPE": 0, "CLASSIFICATION_TYPE": "U", "NORAD_CAT_ID": 30831, "ELEMENT_SET_NO": 999, "REV_AT_EPOCH": 65385, "BSTAR": 0.00036919243, "MEAN_MOTION_DOT": 9.39e-06, "MEAN_MOTION_DDOT": 0}, "tle": {"line1": "1 30831U 99025AVR 25356.17697860  .00000939  00000+0  36919-3 0  9996", "line2": "2 30831  99.3285 149.6295 0055202   6.9659 353.2277 14.31107050653856"}}, "geometry": {"type": "Point", "coordinates": [-33.06202725194806, -19.07307019145899]}}, {"type": "Feature", "properties": {"norad_id": 30833, "name": "FENGYUN 1C DEB", "group": "fengyun-1c-debris", "lat": 62.107986881804045, "lon": 124.86946399926363, "alt_km": 795.9758777235193, "timestamp": "2025-12-22T16:55:17.742256+00:00", "meta": {"OBJECT_NAME": "FENGYUN 1C DEB", "OBJECT_ID": "1999-025AVT", "EPOCH": "2025-12-21T03:35:45.711168", "MEAN_MOTION": 14.26778455, "ECCENTRICITY": 0.00330935, "INCLINATION": 99.8454, "RA_OF_ASC_NODE": 142.275, "ARG_OF_PERICENTER": 157.3775, "MEAN_ANOMALY": 202.8869, "EPHEMERIS_TYPE": 0, "CLASSIFICATION_TYPE": "U", "NORAD_CAT_ID": 30833, "ELEMENT_SET_NO": 999, "REV_AT_EPOCH": 64531, "BSTAR": 0.00040027832, "MEAN_MOTION_DOT": 9.21e-06, "MEAN_MOTION_DDOT": 0}, "tle": {"line1": "1 30833U 99025AVT 25355.14983462  .00000921  00000+0  40028-3 0  9997", "line2": "2 30833  99.8454 142.2750 0033093 157.3775 202.8869 14.26778455645315"}}, "geometry": {"type": "Point", "coordinates": [124.86946399926363, 62.107986881804045]}}, {"type": "Feature", "properties": {"norad_id": 30836, "name": "FENGYUN 1C DEB", "group": "fengyun-1c-debris", "lat": 41.28710395217546, "lon": 21.351533547028858, "alt_km": 868.0724503621477, "timestamp": "2025-12-22T16:55:17.742267+00:00", "meta": {"OBJECT_NAME": "FENGYUN 1C DEB", "OBJECT_ID": "1999-025AVW", "EPOCH": "2025-12-21T01:36:21.545856", "MEAN_MOTION": 14.11944491, "ECCENTRICITY": 0.00260217, "INCLINATION": 98.7439, "RA_OF_ASC_NODE": 27.5216, "ARG_OF_PERICENTER": 220.4586, "MEAN_ANOMALY": 139.4651, "EPHEMERIS_TYPE": 0, "CLASSIFICATION_TYPE": "U", "NORAD_CAT_ID": 30836, "ELEMENT_SET_NO": 999, "REV_AT_EPOCH": 62121, "BSTAR": 0.00026112112, "MEAN_MOTION_DOT": 4.36e-06, "MEAN_MOTION_DDOT": 0}, "tle": {"line1": "1 30836U 99025AVW 25355.06691604  .00000436  00000+0  26112-3 0  9994", "line2": "2 30836  98.7439  27.5216 0026021 220.4586 139.4651 14.11944491621212"}}, "geometry": {"type": "Point", "coordinates": [21.351533547028858, 41.28710395217546]}}, {"type": "Feature", "properties": {"norad_id": 30837, "name": "FENGYUN 1C DEB", "group": "fengyun-1c-debris", "lat": 1.6746452560107035, "lon": 162.9170213544968, "alt_km": 839.3193644722633, "timestamp": "2025-12-22T16:55:17.742277+00:00", "meta": {"OBJECT_NAME": "FENGYUN 1C DEB", "OBJECT_ID": "1999-025AVX", "EPOCH": "2025-12-21T21:32:58.369056", "MEAN_MOTION": 14.1453265, "ECCENTRICITY": 0.00332568, "INCLINATION": 98.6792, "RA_OF_ASC_NODE": 341.8767, "ARG_OF_PERICENTER": 107.9203, "MEAN_ANOMALY": 281.8511, "EPHEMERIS_TYPE": 0, "CLASSIFICATION_TYPE": "U", "NORAD_CAT_ID": 30837, "ELEMENT_SET_NO": 999, "REV_AT_EPOCH": 96948, "BSTAR": 0.00028611025, "MEAN_MOTION_DOT": 5.09e-06, "MEAN_MOTION_DDOT": 0}, "tle": {"line1": "1 30837U 99025AVX 25355.89789779  .00000509  00000+0  28611-3 0  9994", "line2": "2 30837  98.6792 341.8767 0033256 107.9203 281.8511 14.14532650969484"}}, "geometry": {"type": "Point", "coordinates": [162.9170213544968, 1.6746452560107035]}}, {"type": "Feature", "properties": {"norad_id": 30838, "name": "FENGYUN 1C DEB", "group": "fengyun-1c-debris", "lat": -61.77247002939644, "lon": -71.47945765326374, "alt_km": 764.0990110621397, "timestamp": "2025-12-22T16:55:17.742288+00:00", "meta": {"OBJECT_NAME": "FENGYUN 1C DEB", "OBJECT_ID": "1999-025AVY", "EPOCH": "2025-12-22T05:36:17.463744", "MEAN_MOTION": 14.47887519, "ECCENTRICITY": 0.00349058, "INCLINATION": 99.0434, "RA_OF_ASC_NODE": 270.7579, "ARG_OF_PERICENTER": 128.404, "MEAN_ANOMALY": 232.0294, "EPHEMERIS_TYPE": 0, "CLASSIFICATION_TYPE": "U", "NORAD_CAT_ID": 30838, "ELEMENT_SET_NO": 999, "REV_AT_EPOCH": 97451, "BSTAR": 0.0025587692, "MEAN_MOTION_DOT": 9.515e-05, "MEAN_MOTION_DDOT": 0}, "tle": {"line1": "1 30838U 99025AVY 25356.23353546  .00009515  00000+0  25588-2 0  9998", "line2": "2 30838  99.0434 270.7579 0034905 128.4040 232.0294 14.47887519974512"}}, "geometry": {"type": "Point", "coordinates": [-71.47945765326374, -61.77247002939644]}}, {"type": "Feature", "properties": {"norad_id": 30840, "name": "FENGYUN 1C DEB", "group": "fengyun-1c-debris", "lat": 2.004639038466848, "lon": -171.96143051967516, "alt_km": 836.9970790563211, "timestamp": "2025-12-22T16:55:17.742301+00:00", "meta": {"OBJECT_NAME": "FENGYUN 1C DEB", "OBJECT_ID": "1999-025AWA", "EPOCH": "2025-12-21T18:44:16.569312", "MEAN_MOTION": 14.61189919, "ECCENTRICITY": 0.02168246, "INCLINATION": 98.022, "RA_OF_ASC_NODE": 6.8589, "ARG_OF_PERICENTER": 342.2186, "MEAN_ANOMALY": 17.1509, "EPHEMERIS_TYPE": 0, "CLASSIFICATION_TYPE": "U", "NORAD_CAT_ID": 30840, "ELEMENT_SET_NO": 999, "REV_AT_EPOCH": 73263, "BSTAR": 0.00063674912, "MEAN_MOTION_DOT": 4.327e-05, "MEAN_MOTION_DDOT": 0}, "tle": {"line1": "1 30840U 99025AWA 25355.78074733  .00004327  00000+0  63675-3 0  9994", "line2": "2 30840  98.0220   6.8589 0216824 342.2186  17.1509 14.61189919732636"}}, "geometry": {"type": "Point", "coordinates": [-171.96143051967516, 2.004639038466848]}}, {"type": "Feature", "properties": {"norad_id": 30843, "name": "FENGYUN 1C DEB", "group": "fengyun-1c-debris", "lat": 53.938682677603765, "lon": 56.52120376853905, "alt_km": 624.975326978355, "timestamp": "2025-12-22T16:55:17.742312+00:00", "meta": {"OBJECT_NAME": "FENGYUN 1C DEB", "OBJECT_ID": "1999-025AWD", "EPOCH": "2025-12-21T15:52:25.519872", "MEAN_MOTION": 14.52488182, "ECCENTRICITY": 0.0148945, "INCLINATION": 98.8413, "RA_OF_ASC_NODE": 67.7641, "ARG_OF_PERICENTER": 92.7919, "MEAN_ANOMALY": 269.0332, "EPHEMERIS_TYPE": 0, "CLASSIFICATION_TYPE": "U", "NORAD_CAT_ID": 30843, "ELEMENT_SET_NO": 999, "REV_AT_EPOCH": 99454, "BSTAR": 0.00011001254, "MEAN_MOTION_DOT": 4.62e-06, "MEAN_MOTION_DDOT": 0}, "tle": {"line1": "1 30843U 99025AWD 25355.66140648  .00000462  00000+0  11001-3 0  9995", "line2": "2 30843  98.8413  67.7641 0148945  92.7919 269.0332 14.52488182994541"}}, "geometry": {"type": "Point", "coordinates": [56.52120376853905, 53.938682677603765]}}, {"type": "Feature", "properties": {"norad_id": 30845, "name": "FENGYUN 1C DEB", "group": "fengyun-1c-debris", "lat": 28.620940986724882, "lon": -179.2783275723435, "alt_km": 976.8747298101771, "timestamp": "2025-12-22T16:55:17.742322+00:00", "meta": {"OBJECT_NAME": "FENGYUN 1C DEB", "OBJECT_ID": "1999-025AWF", "EPOCH": "2025-12-21T18:21:33.686208", "MEAN_MOTION": 13.76864531, "ECCENTRICITY": 0.01921106, "INCLINATION": 98.379, "RA_OF_ASC_NODE": 355.2796, "ARG_OF_PERICENTER": 245.9079, "MEAN_ANOMALY": 290.0104, "EPHEMERIS_TYPE": 0, "CLASSIFICATION_TYPE": "U", "NORAD_CAT_ID": 30845, "ELEMENT_SET_NO": 999, "REV_AT_EPOCH": 94367, "BSTAR": 0.00027550575, "MEAN_MOTION_DOT": 2.73e-06, "MEAN_MOTION_DDOT": 0}, "tle": {"line1": "1 30845U 99025AWF 25355.76497322  .00000273  00000+0  27551-3 0  9999", "line2": "2 30845  98.3790 355.2796 0192110 245.9079 290.0104 13.76864531943674"}}, "geometry": {"type": "Point", "coordinates": [-179.2783275723435, 28.620940986724882]}}]}